[{"OBJECT_NAME":"TRANSPORTER-13 OBJECT U","OBJECT_ID":"2025-052U","EPOCH":"2026-03-09T16:34:18.384384","MEAN_MOTION":15.22399222,"ECCENTRICITY":0.00064743,"INCLINATION":97.4037,"RA_OF_ASC_NODE":322.9372,"ARG_OF_PERICENTER":126.5652,"MEAN_ANOMALY":233.6181,"EPHEMERIS_TYPE":0,"CLASSIFICATION_TYPE":"U","NORAD_CAT_ID":63228,"ELEMENT_SET_NO":999,"REV_AT_EPOCH":5472,"BSTAR":0.0003303988,"MEAN_MOTION_DOT":7.569e-5,"MEAN_MOTION_DDOT":0},{"OBJECT_NAME":"DMSP 5D-2 F14 DEB","OBJECT_ID":"1997-012E","EPOCH":"2026-03-09T23:05:42.500544","MEAN_MOTION":15.25086034,"ECCENTRICITY":0.00083151,"INCLINATION":98.7933,"RA_OF_ASC_NODE":208.6058,"ARG_OF_PERICENTER":272.9178,"MEAN_ANOMALY":87.1104,"EPHEMERIS_TYPE":0,"CLASSIFICATION_TYPE":"U","NORAD_CAT_ID":24778,"ELEMENT_SET_NO":999,"REV_AT_EPOCH":51788,"BSTAR":0.0054670036,"MEAN_MOTION_DOT":0.00139299,"MEAN_MOTION_DDOT":0}]
